TISAT 1                 
1 36799U 10035E   26068.75703561  .00024554  00000+0  91005-3 0  9996
2 36799  98.0645   6.8512 0001343 159.3030 200.8262 15.27628633852505
STARLINK-35777          
1 66975U 25288S   26068.30416733  .00031837  00000+0  11605-2 0  9993
2 66975  43.0009  26.0425 0001264 270.6434  89.4272 15.27607847 15228
